QIANFAN-1               
1 60379U 24140A   25321.80691293  .00000062  00000+0  78267-4 0  9998
2 60379  88.9733 301.8644 0015717 290.1397  69.8063 13.50979736 63981
QIANFAN-2               
1 60380U 24140B   25321.76185758  .00000077  00000+0  10018-3 0  9994
2 60380  88.9720 301.7118 0010798 258.9669 101.0267 13.50971832 64033
QIANFAN-3               
1 60381U 24140C   25321.84413948  .00000068  00000+0  86440-4 0  9992
2 60381  88.9712 301.8378 0011961 273.4751  86.5032 13.50977919 63950
QIANFAN-4               
1 60382U 24140D   25321.81931965  .00000062  00000+0  77160-4 0  9997
2 60382  88.9737 301.7317 0011021 261.9182  98.0718 13.50978202 64076
QIANFAN-5               
1 60383U 24140E   25321.79472441  .00000086  00000+0  11529-3 0  9996
2 60383  88.9712 301.8685 0013347 286.3093  73.6590 13.50975445 63931
QIANFAN-6               
1 60384U 24140F   25321.81532160  .00000057  00000+0  69136-4 0  9991
2 60384  88.9739 301.6058 0011154 268.8916  91.0957 13.50976100 64139
QIANFAN-7               
1 60385U 24140G   25321.86231260  .00000650  00000+0  25788-3 0  9997
2 60385  88.9754 296.6459 0016900 117.6587 242.6325 14.27608070 66840
QIANFAN-8               
1 60386U 24140H   25321.82353877  .00000064  00000+0  81086-4 0  9996
2 60386  88.9740 301.8420 0014620 271.1179  88.8297 13.50974094 63980
